[{"OBJECT_NAME":"STARLINK-4089","OBJECT_ID":"2022-062B","EPOCH":"2026-03-09T07:29:32.434944","MEAN_MOTION":15.08845285,"ECCENTRICITY":0.00014157,"INCLINATION":53.2172,"RA_OF_ASC_NODE":35.8132,"ARG_OF_PERICENTER":87.1019,"MEAN_ANOMALY":273.0135,"EPHEMERIS_TYPE":0,"CLASSIFICATION_TYPE":"U","NORAD_CAT_ID":52831,"ELEMENT_SET_NO":999,"REV_AT_EPOCH":20572,"BSTAR":6.529408e-5,"MEAN_MOTION_DOT":7.52e-6,"MEAN_MOTION_DDOT":0},{"OBJECT_NAME":"JILIN-01 KUANFU 02B 3","OBJECT_ID":"2024-169C","EPOCH":"2026-03-09T22:06:48.862368","MEAN_MOTION":15.0924242,"ECCENTRICITY":0.00160506,"INCLINATION":97.5557,"RA_OF_ASC_NODE":159.7436,"ARG_OF_PERICENTER":304.8201,"MEAN_ANOMALY":55.1517,"EPHEMERIS_TYPE":0,"CLASSIFICATION_TYPE":"U","NORAD_CAT_ID":61191,"ELEMENT_SET_NO":999,"REV_AT_EPOCH":8085,"BSTAR":0.00039569069,"MEAN_MOTION_DOT":6.253e-5,"MEAN_MOTION_DDOT":0}]
